ORBCOMM-X               
1 21576U 91050C   26018.41830892  .00000283  00000+0  96340-4 0  9996
2 21576  98.3173  85.3530 0002521 247.1952 112.8972 14.43468694813166
ORBCOMM FM01            
1 23545U 95017A   26018.39136250  .00005730  00000+0  54866-3 0  9993
2 23545  69.9607 256.1613 0005183 309.2771  50.7925 14.93689515644607
ORBCOMM FM02            
1 23546U 95017B   26018.42500127  .00008545  00000+0  77750-3 0  9990
2 23546  69.9633 274.4688 0006451 317.3735  42.6921 14.95482346644286
ORBCOMM FM08            
1 25112U 97084A   26018.42796415  .00001314  00000+0  39926-3 0  9994
2 25112  45.0145  53.9215 0008472 262.8197  97.1691 14.46747697472532
ORBCOMM FM10            
1 25113U 97084B   26018.51259211  .00001175  00000+0  36345-3 0  9990
2 25113  45.0157  56.3028 0006583 238.3959 121.6251 14.46479797647688
ORBCOMM FM11            
1 25114U 97084C   26018.41694816  .00001136  00000+0  35433-3 0  9998
2 25114  45.0142  57.7939 0007399 237.5598 122.4539 14.46227515472622
ORBCOMM FM12            
1 25115U 97084D   26018.51450376  .00001143  00000+0  35617-3 0  9993
2 25115  45.0149  57.0531 0006465 237.7389 122.2836 14.46249505472434
ORBCOMM FM09            
1 25116U 97084E   26018.49874084  .00001135  00000+0  35529-3 0  9990
2 25116  45.0153  58.3039 0007366 226.2275 133.7968 14.46083311472631
